[{"OBJECT_NAME":"STARLINK-30986","OBJECT_ID":"2023-186V","EPOCH":"2026-03-09T00:12:17.228736","MEAN_MOTION":15.26746052,"ECCENTRICITY":0.00013223,"INCLINATION":43.0032,"RA_OF_ASC_NODE":67.355,"ARG_OF_PERICENTER":276.4823,"MEAN_ANOMALY":83.5877,"EPHEMERIS_TYPE":0,"CLASSIFICATION_TYPE":"U","NORAD_CAT_ID":58492,"ELEMENT_SET_NO":999,"REV_AT_EPOCH":12578,"BSTAR":3.626784e-5,"MEAN_MOTION_DOT":7.13e-6,"MEAN_MOTION_DDOT":0},{"OBJECT_NAME":"CZ-2F DEB","OBJECT_ID":"2022-093H","EPOCH":"2026-03-09T22:47:12.359904","MEAN_MOTION":15.21733628,"ECCENTRICITY":0.00740619,"INCLINATION":50.0217,"RA_OF_ASC_NODE":315.3952,"ARG_OF_PERICENTER":34.8084,"MEAN_ANOMALY":325.7683,"EPHEMERIS_TYPE":0,"CLASSIFICATION_TYPE":"U","NORAD_CAT_ID":53364,"ELEMENT_SET_NO":999,"REV_AT_EPOCH":19831,"BSTAR":0.00048014935,"MEAN_MOTION_DOT":0.00011557,"MEAN_MOTION_DDOT":0}]
